NORAD_CAT_ID,OBJECT_NAME,OBJECT_TYPE,EPOCH,MEAN_MOTION,ECCENTRICITY,INCLINATION,RA_OF_ASC_NODE,ARG_OF_PERICENTER,MEAN_ANOMALY,BSTAR,MEAN_MOTION_DOT,MEAN_MOTION_DDOT,TLE_LINE0,TLE_LINE1,TLE_LINE2,SEMIMAJOR_AXIS,PERIOD,APOGEE,PERIGEE,DECAYED
49750.0,STARLINK-3236,PAYLOAD,2022-01-21 14:00:01,15.40404799,0.0002972,53.2166,83.4163,19.828,329.11800000000005,0.0016668,0.00068635,0.0,0 STARLINK-3236,1 49750U 21115AC  22021.58334491  .00068635  00000-0  16668-2 0  9996,2 49750  53.2166  83.4163 0002972  19.8280 329.1180 15.40404799  3621,6823.051,93.482,446.944,442.888,0.0
49750.0,STARLINK-3236,PAYLOAD,2022-01-21 22:00:00,15.40444513,0.00028,53.2168,81.844,21.039,17.4613,0.00067291,0.00027354,0.0,0 STARLINK-3236,1 49750U 21115AC  22021.91667824  .00027354  00000-0  67291-3 0  9994,2 49750  53.2168  81.8440 0002800  21.0390  17.4613 15.40444513  3648,6822.933000000001,93.48,446.709,442.888,0.0
49750.0,STARLINK-3236,PAYLOAD,2022-01-22 06:00:00,15.40501264,0.0002832,53.2169,80.2734,22.7888,65.2922,-0.00057098,-0.00023845,0.0,0 STARLINK-3236,1 49750U 21115AC  22022.25001157 -.00023845  00000-0 -57098-3 0  9990,2 49750  53.2169  80.2734 0002832  22.7888  65.2922 15.40501264  9011,6822.766,93.476,446.56300000000016,442.699,0.0
49750.0,STARLINK-3236,PAYLOAD,2022-01-22 14:00:01,15.40456299,0.0003056,53.2171,78.7043,20.1213,117.6122,0.0020754,0.00085901,0.0,0 STARLINK-3236,1 49750U 21115AC  22022.58334491  .00085901  00000-0  20754-2 0  9993,2 49750  53.2171  78.7043 0003056  20.1213 117.6122 15.40456299  3635,6822.899,93.479,446.849,442.679,0.0
49750.0,STARLINK-3236,PAYLOAD,2022-01-22 22:00:00,15.40522571,0.000286,53.2173,77.1317,20.0517,167.3116,-0.00012863,-5.702e-05,0.0,0 STARLINK-3236,1 49750U 21115AC  22022.91667824 -.00005702  00000-0 -12863-3 0  9995,2 49750  53.2173  77.1317 0002860  20.0517 167.3116 15.40522571  9113,6822.703,93.475,446.519,442.617,0.0
49750.0,STARLINK-3236,PAYLOAD,2022-01-23 14:00:01,15.40457847,0.000306,53.2176,73.992,14.6816,271.9818,0.00020917,8.206e-05,0.0,0 STARLINK-3236,1 49750U 21115AC  22023.58334491  .00008206  00000-0  20917-3 0  9999,2 49750  53.2176  73.9920 0003060  14.6816 271.9818 15.40457847  9220,6822.894,93.479,446.847,442.671,0.0
49750.0,STARLINK-3236,PAYLOAD,2022-01-23 22:00:00,15.4042685,0.0002886,53.2176,72.4196,16.4087,319.8518,0.00079983,0.00032593,0.0,0 STARLINK-3236,1 49750U 21115AC  22023.91667824  .00032593  00000-0  79983-3 0  9998,2 49750  53.2176  72.4196 0002886  16.4087 319.8518 15.40426850  3632,6822.986,93.481,446.82,442.881,0.0
49750.0,STARLINK-3236,PAYLOAD,2022-01-24 06:00:02,15.40482649,0.0002941,53.2177,70.8495,17.8803,7.9922,-0.0011244,-0.00046402,0.0,0 STARLINK-3236,1 49750U 21115AC  22024.25002315 -.00046402  00000-0 -11244-2 0  9995,2 49750  53.2177  70.8495 0002941  17.8803   7.9922 15.40482649  9324,6822.821,93.477,446.692,442.679,0.0
49750.0,STARLINK-3236,PAYLOAD,2022-01-24 14:00:01,15.40430804,0.000316,53.2174,69.2803,15.4419,59.9578,0.00091838,0.00037514,0.0,0 STARLINK-3236,1 49750U 21115AC  22024.58334491  .00037514  00000-0  91838-3 0  9994,2 49750  53.2174  69.2803 0003160  15.4419  59.9578 15.40430804  3646,6822.974,93.48,446.995,442.6830000000001,0.0
49750.0,STARLINK-3236,PAYLOAD,2022-01-24 22:00:00,15.40416265,0.0002898,53.2174,67.708,15.4344,109.5426,0.0012607,0.00051718,0.0,0 STARLINK-3236,1 49750U 21115AC  22024.91667824  .00051718  00000-0  12607-2 0  9998,2 49750  53.2174  67.7080 0002898  15.4344 109.5426 15.40416265  9421,6823.017,93.481,446.859,442.905,0.0
49750.0,STARLINK-3236,PAYLOAD,2022-01-25 14:00:01,15.40448439,0.0003151,53.2171,64.569,15.567,208.564,0.00088166,0.00036012,0.0,0 STARLINK-3236,1 49750U 21115AC  22025.58334491  .00036012  00000-0  88166-3 0  9997,2 49750  53.2171  64.5690 0003151  15.5670 208.5640 15.40448439  9523,6822.922,93.479,446.937,442.637,0.0
49750.0,STARLINK-3236,PAYLOAD,2022-01-25 22:00:00,15.40467801,0.0002901999999999,53.2172,62.9965,17.5371,256.2014,0.00088165,0.00036034,0.0,0 STARLINK-3236,1 49750U 21115AC  22025.91667824  .00036034  00000-0  88165-3 0  9996,2 49750  53.2172  62.9965 0002902  17.5371 256.2014 15.40467801  3651,6822.865,93.478,446.71,442.75,0.0
49750.0,STARLINK-3236,PAYLOAD,2022-01-26 06:00:00,15.40460893,0.0003218,53.2176,61.4206,14.4863,308.8358,-1.8786e-05,-1.177e-05,0.0,0 STARLINK-3236,1 49750U 21115AC  22026.25001157 -.00001177  00000-0 -18786-4 0  9990,2 49750  53.2176  61.4206 0003218  14.4863 308.8358 15.40460893  9633,6822.885,93.479,446.946,442.554,0.0
49750.0,STARLINK-3236,PAYLOAD,2022-01-26 14:00:01,15.40453508,0.0003081,53.2171,59.8573,14.161,358.8229,0.00019513,7.627e-05,0.0,0 STARLINK-3236,1 49750U 21115AC  22026.58334491  .00007627  00000-0  19513-3 0  9998,2 49750  53.2171  59.8573 0003081  14.1610 358.8229 15.40453508  9683,6822.906999999997,93.479,446.874,442.67,0.0
49750.0,STARLINK-3236,PAYLOAD,2022-01-26 22:00:00,15.40426196,0.0002804,53.2173,58.2849,15.3226,47.2431,0.00063108,0.00025607,0.0,0 STARLINK-3236,1 49750U 21115AC  22026.91667824  .00025607  00000-0  63108-3 0  9991,2 49750  53.2173  58.2849 0002804  15.3226  47.2431 15.40426196  3649,6822.988,93.481,446.766,442.939,0.0
49750.0,STARLINK-3236,PAYLOAD,2022-01-27 04:00:00,15.40459662,0.0002836,53.2177,57.1075,16.838,352.8862,-0.0010585,-0.00043688,0.0,0 STARLINK-3236,1 49750U 21115AC  22027.16667824 -.00043688  00000-0 -10585-2 0  9990,2 49750  53.2177  57.1075 0002836  16.8380 352.8862 15.40459662  9771,6822.889,93.479,446.689,442.819,0.0
49750.0,STARLINK-3236,PAYLOAD,2022-01-27 11:44:39,15.40453223,0.0002819,53.2183,55.5908,21.667,338.4455,3.2483e-05,9.31e-06,0.0,0 STARLINK-3236,1 49750U 21115AC  22027.48934574  .00000931  00000-0  32483-4 0  9999,2 49750  53.2183  55.5908 0002819  21.6670 338.4455 15.40453223  8710,6822.908,93.479,446.696,442.849,0.0
49750.0,STARLINK-3236,PAYLOAD,2022-01-27 22:00:00,15.40438433,0.0002848,53.2178,53.5735,15.6433,195.6055,0.00071346,0.00029027,0.0,0 STARLINK-3236,1 49750U 21115AC  22027.91667824  .00029027  00000-0  71346-3 0  9995,2 49750  53.2178  53.5735 0002848  15.6433 195.6055 15.40438433  9886,6822.951,93.48,446.76,442.87300000000016,0.0
49750.0,STARLINK-3236,PAYLOAD,2022-01-28 12:00:00,15.40461331,0.000312,53.2183,50.8273,15.028,193.0224,0.00083829,0.00034227,0.0,0 STARLINK-3236,1 49750U 21115AC  22028.50001157  .00034227  00000-0  83829-3 0  9999,2 49750  53.2183  50.8273 0003120  15.0280 193.0224 15.40461331  3626,6822.884,93.478,446.878,442.62,0.0
49750.0,STARLINK-3236,PAYLOAD,2022-01-28 22:00:00,15.40438469,0.0002853,53.2182,48.8618,14.4611,345.6061,0.0012892,0.00052944,0.0,0 STARLINK-3236,1 49750U 21115AC  22028.91667824  .00052944  00000-0  12892-2 0  9990,2 49750  53.2182  48.8618 0002853  14.4611 345.6061 15.40438469  3639,6822.951,93.48,446.763,442.87,0.0
49750.0,STARLINK-3236,PAYLOAD,2022-01-29 06:00:00,15.40488527,0.0003016,53.2183,47.2911,14.1163,35.5383,-0.0010196,-0.00042147,0.0,0 STARLINK-3236,1 49750U 21115AC  22029.25001157 -.00042147  00000-0 -10196-2 0  9990,2 49750  53.2183  47.2911 0003016  14.1163  35.5383 15.40488527 10090,6822.803000000001,93.477,446.726,442.611,0.0
49750.0,STARLINK-3236,PAYLOAD,2022-01-29 14:00:01,15.40544222,0.0003044,53.2175,45.7202,14.1025,85.1491,-0.0089225,-0.00352002,0.0,0 STARLINK-3236,1 49750U 21115AC  22029.58334491 -.00352002  00000-0 -89225-2 0  9999,2 49750  53.2175  45.7202 0003044  14.1025  85.1491 15.40544222 10147,6822.639,93.473,446.581,442.427,0.0
49750.0,STARLINK-3236,PAYLOAD,2022-01-29 22:00:00,15.40359388,0.0003036,53.2175,44.1477,13.3266,135.4617,-0.017322,-0.00660792,0.0,0 STARLINK-3236,1 49750U 21115AC  22029.91667824 -.00660792  00000-0 -17322-1 0  9991,2 49750  53.2175  44.1477 0003036  13.3266 135.4617 15.40359388 10194,6823.185,93.485,447.121,442.978,0.0
49750.0,STARLINK-3236,PAYLOAD,2022-01-30 06:00:00,15.39891361,0.0003297,53.2176,42.5819,12.6364,185.2223,-0.017533,-0.00658725,0.0,0 STARLINK-3236,1 49750U 21115AC  22030.25001157 -.00658725  00000-0 -17533-1 0  9998,2 49750  53.2176  42.5819 0003297  12.6364 185.2223 15.39891361 10249,6824.566999999999,93.513,448.682,444.182,0.0
49750.0,STARLINK-3236,PAYLOAD,2022-01-30 14:00:01,15.3942858,0.0002714,53.2172,41.0162,18.7113,227.7674,-0.017986,-0.00664916,0.0,0 STARLINK-3236,1 49750U 21115AC  22030.58334491 -.00664916  00000-0 -17986-1 0  9995,2 49750  53.2172  41.0162 0002714  18.7113 227.7674 15.39428580  3649,6825.935,93.541,449.652,445.947,0.0
49750.0,STARLINK-3236,PAYLOAD,2022-01-30 22:00:00,15.3895753,0.0002718,53.2175,39.4499,12.4513,282.091,-0.018051,-0.00657568,0.0,0 STARLINK-3236,1 49750U 21115AC  22030.91667824 -.00657568  00000-0 -18051-1 0  9990,2 49750  53.2175  39.4499 0002718  12.4513 282.0910 15.38957530  3643,6827.328,93.57,451.048,447.337,0.0
49750.0,STARLINK-3236,PAYLOAD,2022-01-31 06:00:00,15.3841866,0.0004348,53.2178,37.8869,284.2423,57.841,-0.015552,-0.00556973,0.0,0 STARLINK-3236,1 49750U 21115AC  22031.25001157 -.00556973  00000-0 -15552-1 0  9990,2 49750  53.2178  37.8869 0004348 284.2423  57.8410 15.38418660 10400,6828.922,93.603,453.756,447.818,0.0
49750.0,STARLINK-3236,PAYLOAD,2022-01-31 14:00:01,15.38025686,0.0002883,53.2173,36.3256,301.0125,88.0311,-0.01858,-0.00656544,0.0,0 STARLINK-3236,1 49750U 21115AC  22031.58335648 -.00656544  00000-0 -18580-1 0  9990,2 49750  53.2173  36.3256 0002883 301.0125  88.0311 15.38025686  3644,6830.085,93.627,453.919,449.981,0.0
49750.0,STARLINK-3236,PAYLOAD,2022-01-31 22:00:01,15.37564079,0.0004209,53.2174,34.7626,299.0567,136.3656,-0.019182,-0.00667117,0.0,0 STARLINK-3236,1 49750U 21115AC  22031.91668981 -.00667117  00000-0 -19182-1 0  9993,2 49750  53.2174  34.7626 0004209 299.0567 136.3656 15.37564079 10503,6831.4519999999975,93.655,456.192,450.442,0.0
